[{"OBJECT_NAME":"TIANMU-1 10","OBJECT_ID":"2023-101D","EPOCH":"2026-04-27T12:18:05.824224","MEAN_MOTION":15.29341988,"ECCENTRICITY":0.0002747,"INCLINATION":97.2667,"RA_OF_ASC_NODE":169.5722,"ARG_OF_PERICENTER":334.0691,"MEAN_ANOMALY":26.0411,"EPHEMERIS_TYPE":0,"CLASSIFICATION_TYPE":"U","NORAD_CAT_ID":57402,"ELEMENT_SET_NO":999,"REV_AT_EPOCH":15389,"BSTAR":0.000262,"MEAN_MOTION_DOT":7.384e-5,"MEAN_MOTION_DDOT":0},{"OBJECT_NAME":"FENGYUN 3F","OBJECT_ID":"2023-111A","EPOCH":"2026-04-27T12:30:06.251616","MEAN_MOTION":14.1992984,"ECCENTRICITY":9.15e-5,"INCLINATION":98.686,"RA_OF_ASC_NODE":188.4682,"ARG_OF_PERICENTER":113.5275,"MEAN_ANOMALY":246.5998,"EPHEMERIS_TYPE":0,"CLASSIFICATION_TYPE":"U","NORAD_CAT_ID":57490,"ELEMENT_SET_NO":999,"REV_AT_EPOCH":14167,"BSTAR":4.573e-5,"MEAN_MOTION_DOT":5.4e-7,"MEAN_MOTION_DDOT":0},{"OBJECT_NAME":"ARKTIKA-M 2","OBJECT_ID":"2023-198A","EPOCH":"2026-04-20T22:18:36.192384","MEAN_MOTION":2.00586979,"ECCENTRICITY":0.69533035,"INCLINATION":63.2192,"RA_OF_ASC_NODE":160.7194,"ARG_OF_PERICENTER":267.0904,"MEAN_ANOMALY":18.471,"EPHEMERIS_TYPE":0,"CLASSIFICATION_TYPE":"U","NORAD_CAT_ID":58584,"ELEMENT_SET_NO":999,"REV_AT_EPOCH":1717,"BSTAR":0,"MEAN_MOTION_DOT":2.17e-6,"MEAN_MOTION_DDOT":0},{"OBJECT_NAME":"TIANMU-1 11","OBJECT_ID":"2023-205A","EPOCH":"2026-04-27T12:29:34.096128","MEAN_MOTION":15.26462036,"ECCENTRICITY":0.0009243,"INCLINATION":97.3486,"RA_OF_ASC_NODE":139.8854,"ARG_OF_PERICENTER":171.6916,"MEAN_ANOMALY":188.4477,"EPHEMERIS_TYPE":0,"CLASSIFICATION_TYPE":"U","NORAD_CAT_ID":58645,"ELEMENT_SET_NO":999,"REV_AT_EPOCH":12979,"BSTAR":0.00024865,"MEAN_MOTION_DOT":6.418e-5,"MEAN_MOTION_DDOT":0},{"OBJECT_NAME":"TIANMU-1 12","OBJECT_ID":"2023-205B","EPOCH":"2026-04-27T13:19:10.927776","MEAN_MOTION":15.26408273,"ECCENTRICITY":0.000811,"INCLINATION":97.3475,"RA_OF_ASC_NODE":139.686,"ARG_OF_PERICENTER":153.6206,"MEAN_ANOMALY":206.5447,"EPHEMERIS_TYPE":0,"CLASSIFICATION_TYPE":"U","NORAD_CAT_ID":58646,"ELEMENT_SET_NO":999,"REV_AT_EPOCH":12978,"BSTAR":0.00025754,"MEAN_MOTION_DOT":6.638e-5,"MEAN_MOTION_DDOT":0},{"OBJECT_NAME":"TIANMU-1 13","OBJECT_ID":"2023-205C","EPOCH":"2026-04-27T12:26:54.165408","MEAN_MOTION":15.26461636,"ECCENTRICITY":0.0008876,"INCLINATION":97.3503,"RA_OF_ASC_NODE":139.9108,"ARG_OF_PERICENTER":138.2271,"MEAN_ANOMALY":221.9646,"EPHEMERIS_TYPE":0,"CLASSIFICATION_TYPE":"U","NORAD_CAT_ID":58647,"ELEMENT_SET_NO":999,"REV_AT_EPOCH":12977,"BSTAR":0.00025157,"MEAN_MOTION_DOT":6.494e-5,"MEAN_MOTION_DDOT":0},{"OBJECT_NAME":"TIANMU-1 14","OBJECT_ID":"2023-205D","EPOCH":"2026-04-27T12:05:53.856384","MEAN_MOTION":15.26432482,"ECCENTRICITY":0.0009464,"INCLINATION":97.3438,"RA_OF_ASC_NODE":139.1213,"ARG_OF_PERICENTER":142.6698,"MEAN_ANOMALY":217.52,"EPHEMERIS_TYPE":0,"CLASSIFICATION_TYPE":"U","NORAD_CAT_ID":58648,"ELEMENT_SET_NO":999,"REV_AT_EPOCH":12977,"BSTAR":0.00024416,"MEAN_MOTION_DOT":6.296e-5,"MEAN_MOTION_DDOT":0},{"OBJECT_NAME":"TIANMU-1 19","OBJECT_ID":"2023-208A","EPOCH":"2026-04-27T13:46:41.027808","MEAN_MOTION":15.30772777,"ECCENTRICITY":0.0006351,"INCLINATION":97.4439,"RA_OF_ASC_NODE":233.6645,"ARG_OF_PERICENTER":128.7045,"MEAN_ANOMALY":231.4765,"EPHEMERIS_TYPE":0,"CLASSIFICATION_TYPE":"U","NORAD_CAT_ID":58660,"ELEMENT_SET_NO":999,"REV_AT_EPOCH":12958,"BSTAR":0.00032014,"MEAN_MOTION_DOT":9.451e-5,"MEAN_MOTION_DDOT":0},{"OBJECT_NAME":"TIANMU-1 20","OBJECT_ID":"2023-208B","EPOCH":"2026-04-27T12:29:37.934880","MEAN_MOTION":15.31961182,"ECCENTRICITY":0.0008364,"INCLINATION":97.438,"RA_OF_ASC_NODE":234.1938,"ARG_OF_PERICENTER":137.8565,"MEAN_ANOMALY":222.3321,"EPHEMERIS_TYPE":0,"CLASSIFICATION_TYPE":"U","NORAD_CAT_ID":58661,"ELEMENT_SET_NO":999,"REV_AT_EPOCH":12966,"BSTAR":0.00034531,"MEAN_MOTION_DOT":0.00010592,"MEAN_MOTION_DDOT":0},{"OBJECT_NAME":"TIANMU-1 21","OBJECT_ID":"2023-208C","EPOCH":"2026-04-27T13:59:20.284224","MEAN_MOTION":15.34133499,"ECCENTRICITY":0.0008353,"INCLINATION":97.4438,"RA_OF_ASC_NODE":236.7245,"ARG_OF_PERICENTER":132.4557,"MEAN_ANOMALY":227.7393,"EPHEMERIS_TYPE":0,"CLASSIFICATION_TYPE":"U","NORAD_CAT_ID":58662,"ELEMENT_SET_NO":999,"REV_AT_EPOCH":12980,"BSTAR":0.00034289,"MEAN_MOTION_DOT":0.00011263,"MEAN_MOTION_DDOT":0},{"OBJECT_NAME":"TIANMU-1 22","OBJECT_ID":"2023-208D","EPOCH":"2026-04-27T11:23:07.927584","MEAN_MOTION":15.30314809,"ECCENTRICITY":0.0004736,"INCLINATION":97.4435,"RA_OF_ASC_NODE":233.541,"ARG_OF_PERICENTER":144.907,"MEAN_ANOMALY":215.2483,"EPHEMERIS_TYPE":0,"CLASSIFICATION_TYPE":"U","NORAD_CAT_ID":58663,"ELEMENT_SET_NO":999,"REV_AT_EPOCH":12957,"BSTAR":0.00033757,"MEAN_MOTION_DOT":9.827e-5,"MEAN_MOTION_DDOT":0},{"OBJECT_NAME":"TIANMU-1 15","OBJECT_ID":"2024-004A","EPOCH":"2026-04-27T12:01:32.674368","MEAN_MOTION":15.26474279,"ECCENTRICITY":0.0007648,"INCLINATION":97.4677,"RA_OF_ASC_NODE":303.7,"ARG_OF_PERICENTER":156.6572,"MEAN_ANOMALY":203.5015,"EPHEMERIS_TYPE":0,"CLASSIFICATION_TYPE":"U","NORAD_CAT_ID":58700,"ELEMENT_SET_NO":999,"REV_AT_EPOCH":12804,"BSTAR":0.00027872,"MEAN_MOTION_DOT":7.202e-5,"MEAN_MOTION_DDOT":0},{"OBJECT_NAME":"TIANMU-1 16","OBJECT_ID":"2024-004B","EPOCH":"2026-04-27T13:10:28.030656","MEAN_MOTION":15.26512196,"ECCENTRICITY":0.000606,"INCLINATION":97.4622,"RA_OF_ASC_NODE":303.0372,"ARG_OF_PERICENTER":156.3014,"MEAN_ANOMALY":203.8505,"EPHEMERIS_TYPE":0,"CLASSIFICATION_TYPE":"U","NORAD_CAT_ID":58701,"ELEMENT_SET_NO":999,"REV_AT_EPOCH":12805,"BSTAR":0.00027022,"MEAN_MOTION_DOT":6.986e-5,"MEAN_MOTION_DDOT":0},{"OBJECT_NAME":"TIANMU-1 17","OBJECT_ID":"2024-004C","EPOCH":"2026-04-27T12:47:39.109920","MEAN_MOTION":15.26360444,"ECCENTRICITY":0.0005843,"INCLINATION":97.4651,"RA_OF_ASC_NODE":303.4901,"ARG_OF_PERICENTER":161.0233,"MEAN_ANOMALY":199.1225,"EPHEMERIS_TYPE":0,"CLASSIFICATION_TYPE":"U","NORAD_CAT_ID":58702,"ELEMENT_SET_NO":999,"REV_AT_EPOCH":12804,"BSTAR":0.00029657,"MEAN_MOTION_DOT":7.639e-5,"MEAN_MOTION_DDOT":0},{"OBJECT_NAME":"TIANMU-1 18","OBJECT_ID":"2024-004D","EPOCH":"2026-04-27T12:24:58.745376","MEAN_MOTION":15.26473308,"ECCENTRICITY":0.000474,"INCLINATION":97.4669,"RA_OF_ASC_NODE":303.6997,"ARG_OF_PERICENTER":152.4424,"MEAN_ANOMALY":207.7066,"EPHEMERIS_TYPE":0,"CLASSIFICATION_TYPE":"U","NORAD_CAT_ID":58703,"ELEMENT_SET_NO":999,"REV_AT_EPOCH":12804,"BSTAR":0.00027849,"MEAN_MOTION_DOT":7.192e-5,"MEAN_MOTION_DDOT":0},{"OBJECT_NAME":"INSAT-3DS","OBJECT_ID":"2024-033A","EPOCH":"2026-04-26T18:22:38.701344","MEAN_MOTION":1.00270692,"ECCENTRICITY":0.00019347,"INCLINATION":0.0919,"RA_OF_ASC_NODE":86.7261,"ARG_OF_PERICENTER":299.8544,"MEAN_ANOMALY":185.9109,"EPHEMERIS_TYPE":0,"CLASSIFICATION_TYPE":"U","NORAD_CAT_ID":58990,"ELEMENT_SET_NO":999,"REV_AT_EPOCH":4655,"BSTAR":0,"MEAN_MOTION_DOT":-1.67e-6,"MEAN_MOTION_DDOT":0},{"OBJECT_NAME":"METEOR-M2 4","OBJECT_ID":"2024-039A","EPOCH":"2026-04-27T12:53:24.633024","MEAN_MOTION":14.22424067,"ECCENTRICITY":0.0006395,"INCLINATION":98.6981,"RA_OF_ASC_NODE":77.4827,"ARG_OF_PERICENTER":324.7784,"MEAN_ANOMALY":35.297,"EPHEMERIS_TYPE":0,"CLASSIFICATION_TYPE":"U","NORAD_CAT_ID":59051,"ELEMENT_SET_NO":999,"REV_AT_EPOCH":11206,"BSTAR":2.9234e-5,"MEAN_MOTION_DOT":2.1e-7,"MEAN_MOTION_DDOT":0}]
