TIANMU-1 10             
1 57402U 23101D   26117.51256741  .00007384  00000+0  26200-3 0  9997
2 57402  97.2667 169.5722 0002747 334.0691  26.0411 15.29341988153895
FENGYUN 3F              
1 57490U 23111A   26117.52090569  .00000054  00000+0  45730-4 0  9997
2 57490  98.6860 188.4682 0000915 113.5275 246.5998 14.19929840141679
ARKTIKA-M 2             
1 58584U 23198A   26110.92958556  .00000217  00000+0  00000+0 0  9990
2 58584  63.2192 160.7194 6953303 267.0904  18.4710  2.00586979 17173
TIANMU-1 11             
1 58645U 23205A   26117.52053352  .00006418  00000+0  24865-3 0  9998
2 58645  97.3486 139.8854 0009243 171.6916 188.4477 15.26462036129796
TIANMU-1 12             
1 58646U 23205B   26117.55498759  .00006638  00000+0  25754-3 0  9998
2 58646  97.3475 139.6860 0008110 153.6206 206.5447 15.26408273129785
TIANMU-1 13             
1 58647U 23205C   26117.51868247  .00006494  00000+0  25157-3 0  9995
2 58647  97.3503 139.9108 0008876 138.2271 221.9646 15.26461636129779
TIANMU-1 14             
1 58648U 23205D   26117.50409556  .00006296  00000+0  24416-3 0  9996
2 58648  97.3438 139.1213 0009464 142.6698 217.5200 15.26432482129776
TIANMU-1 19             
1 58660U 23208A   26117.57408597  .00009451  00000+0  32014-3 0  9993
2 58660  97.4439 233.6645 0006351 128.7045 231.4765 15.30772777129583
TIANMU-1 20             
1 58661U 23208B   26117.52057795  .00010592  00000+0  34531-3 0  9993
2 58661  97.4380 234.1938 0008364 137.8565 222.3321 15.31961182129661
TIANMU-1 21             
1 58662U 23208C   26117.58287366  .00011263  00000+0  34289-3 0  9995
2 58662  97.4438 236.7245 0008353 132.4557 227.7393 15.34133499129804
TIANMU-1 22             
1 58663U 23208D   26117.47439731  .00009827  00000+0  33757-3 0  9991
2 58663  97.4435 233.5410 0004736 144.9070 215.2483 15.30314809129578
TIANMU-1 15             
1 58700U 24004A   26117.50107262  .00007202  00000+0  27872-3 0  9999
2 58700  97.4677 303.7000 0007648 156.6572 203.5015 15.26474279128040
TIANMU-1 16             
1 58701U 24004B   26117.54893554  .00006986  00000+0  27022-3 0  9995
2 58701  97.4622 303.0372 0006060 156.3014 203.8505 15.26512196128050
TIANMU-1 17             
1 58702U 24004C   26117.53309155  .00007639  00000+0  29657-3 0  9996
2 58702  97.4651 303.4901 0005843 161.0233 199.1225 15.26360444128041
TIANMU-1 18             
1 58703U 24004D   26117.51734659  .00007192  00000+0  27849-3 0  9991
2 58703  97.4669 303.6997 0004740 152.4424 207.7066 15.26473308128042
INSAT-3DS               
1 58990U 24033A   26116.76572571 -.00000167  00000+0  00000+0 0  9992
2 58990   0.0919  86.7261 0001934 299.8544 185.9109  1.00270692 46550
METEOR-M2 4             
1 59051U 24039A   26117.53709066  .00000021  00000+0  29234-4 0  9997
2 59051  98.6981  77.4827 0006395 324.7784  35.2970 14.22424067112064
